0 COSMOS 252 DEB *
1 03938U 68097BS  13282.33451657  .00000856  00000-0  52977-3 0  5957
2 03938 063.0257 177.8942 1129765 350.2975 107.6336 12.48678272990953
0 COSMOS 252 DEB *
1 03938U 68097BS  13287.76959639  .00000904  00000-0  55610-3 0  5975
2 03938 063.0243 165.7029 1129977 350.6852 059.6690 12.48689502991636
0 COSMOS 252 DEB *
1 03938U 68097BS  13289.85735354  .00000782  00000-0  48707-3 0  5987
2 03938 063.0239 161.0197 1130055 350.8338 084.7241 12.48695265991898
0 COSMOS 252 DEB *
1 03938U 68097BS  13291.85895947  .00000677  00000-0  42794-3 0  5999
2 03938 063.0235 156.5297 1130138 350.9766 082.5415 12.48698843992145
0 COSMOS 252 DEB *
1 03938U 68097BS  13294.03881124  .00000672  00000-0  42539-3 0  6009
2 03938 063.0235 151.6396 1130215 351.1330 161.6633 12.48703559992419
0 COSMOS 252 DEB *
1 03938U 68097BS  13296.04020922  .00000757  00000-0  47247-3 0  6019
2 03938 063.0233 147.1499 1130327 351.2724 158.6148 12.48707845992669
